NORAD_CAT_ID,OBJECT_NAME,OBJECT_TYPE,EPOCH,MEAN_MOTION,ECCENTRICITY,INCLINATION,RA_OF_ASC_NODE,ARG_OF_PERICENTER,MEAN_ANOMALY,BSTAR,MEAN_MOTION_DOT,MEAN_MOTION_DDOT,TLE_LINE0,TLE_LINE1,TLE_LINE2,SEMIMAJOR_AXIS,PERIOD,APOGEE,PERIGEE,DECAYED
49455.0,STARLINK-3145,PAYLOAD,2024-02-03 01:24:21,15.0883882,0.0002277,53.2193,56.1619,141.5508,218.5647,8.2076e-06,-1.58e-06,0.0,0 STARLINK-3145,1 49455U 21104AZ  24034.05858076 -.00000158  00000-0  82076-5 0  9990,2 49455  53.2193  56.1619 0002277 141.5508 218.5647 15.08838820124263,6917.884,95.438,541.324,538.174,0.0
49455.0,STARLINK-3145,PAYLOAD,2024-02-03 07:45:54,15.08840754,0.0001601,53.2179,54.9844,91.9447,268.1728,8.2524e-05,1.026e-05,0.0,0 STARLINK-3145,1 49455U 21104AZ  24034.32354257  .00001026  00000-0  82524-4 0  9993,2 49455  53.2179  54.9844 0001601  91.9447 268.1728 15.08840754123239,6917.878,95.438,540.851,538.636,0.0
49455.0,STARLINK-3145,PAYLOAD,2024-02-04 04:25:54,15.08828673,0.00026,53.2191,51.1161,142.6885,217.4288,0.00031372,4.707e-05,0.0,0 STARLINK-3145,1 49455U 21104AZ  24035.18465765  .00004707  00000-0  31372-3 0  9998,2 49455  53.2191  51.1161 0002600 142.6885 217.4288 15.08828673124431,6917.915,95.438,541.579,537.981,0.0
49455.0,STARLINK-3145,PAYLOAD,2024-02-04 10:47:26,15.08852188,0.0001582,53.2172,49.9276,110.2855,249.8308,0.00011432,1.532e-05,0.0,0 STARLINK-3145,1 49455U 21104AZ  24035.44961421  .00001532  00000-0  11432-3 0  9995,2 49455  53.2172  49.9276 0001582 110.2855 249.8308 15.08852188124472,6917.843,95.437,540.803,538.614,0.0
49455.0,STARLINK-3145,PAYLOAD,2024-02-05 04:16:41,15.08841256,0.0001645,53.2167,46.655,100.1839,259.9339,8.6822e-05,1.094e-05,0.0,0 STARLINK-3145,1 49455U 21104AZ  24036.17825972  .00001094  00000-0  86822-4 0  9995,2 49455  53.2167  46.6550 0001645 100.1839 259.9339 15.08841256124587,6917.877,95.437,540.88,538.604,0.0
49455.0,STARLINK-3145,PAYLOAD,2024-02-05 10:38:14,15.08845354,0.000156,53.2163,45.4668,91.7734,268.3437,0.00013069,1.793e-05,0.0,0 STARLINK-3145,1 49455U 21104AZ  24036.44321779  .00001793  00000-0  13069-3 0  9999,2 49455  53.2163  45.4668 0001560  91.7734 268.3437 15.08845354123557,6917.864,95.437,540.808,538.65,0.0
49455.0,STARLINK-3145,PAYLOAD,2024-02-06 07:18:15,15.08843684,0.000163,53.2184,41.6045,102.4652,257.6523,2.9766e-05,1.86e-06,0.0,0 STARLINK-3145,1 49455U 21104AZ  24037.30434212  .00000186  00000-0  29766-4 0  9999,2 49455  53.2184  41.6045 0001630 102.4652 257.6523 15.08843684124758,6917.869,95.437,540.862,538.607,0.0
49455.0,STARLINK-3145,PAYLOAD,2024-02-07 05:33:38,15.08843114,0.0001707,53.2175,37.4393,102.6532,257.4651,0.00011187,1.493e-05,0.0,0 STARLINK-3145,1 49455U 21104AZ  24038.23170136  .00001493  00000-0  11187-3 0  9993,2 49455  53.2175  37.4393 0001707 102.6532 257.4651 15.08843114123826,6917.871,95.437,540.917,538.555,0.0
49455.0,STARLINK-3145,PAYLOAD,2024-02-07 16:41:20,15.08845959,0.0001588,53.2182,35.3602,89.9256,270.1918,0.00012981,1.779e-05,0.0,0 STARLINK-3145,1 49455U 21104AZ  24038.69538096  .00001779  00000-0  12981-3 0  9996,2 49455  53.2182  35.3602 0001588  89.9256 270.1918 15.08845959124964,6917.862,95.437,540.826,538.629,0.0
49455.0,STARLINK-3145,PAYLOAD,2024-02-08 08:35:12,15.08837807,0.0001743,53.2181,32.3831,87.0217,273.0974,7.906e-05,9.7e-06,0.0,0 STARLINK-3145,1 49455U 21104AZ  24039.35778783  .00000970  00000-0  79060-4 0  9993,2 49455  53.2181  32.3831 0001743  87.0217 273.0974 15.08837807125062,6917.887,95.438,540.958,538.546,0.0
49455.0,STARLINK-3145,PAYLOAD,2024-02-09 06:50:36,15.08845704,0.0001843,53.218,28.2219,72.0362,288.0831,0.00022483,3.292e-05,0.0,0 STARLINK-3145,1 49455U 21104AZ  24040.28514759  .00003292  00000-0  22483-3 0  9994,2 49455  53.2180  28.2219 0001843  72.0362 288.0831 15.08845704124131,6917.863,95.437,541.003,538.453,0.0
49455.0,STARLINK-3145,PAYLOAD,2024-02-10 03:30:38,15.08838514,0.0001648,53.2177,24.3556,84.9617,275.1563,0.00019477,2.813e-05,0.0,0 STARLINK-3145,1 49455U 21104AZ  24041.14627343  .00002813  00000-0  19477-3 0  9991,2 49455  53.2177  24.3556 0001648  84.9617 275.1563 15.08838514125339,6917.885,95.438,540.89,538.61,0.0
49455.0,STARLINK-3145,PAYLOAD,2024-02-10 08:16:47,15.08848017,0.0001818,53.2188,23.463,82.7679,277.352,0.00035449,5.359e-05,0.0,0 STARLINK-3145,1 49455U 21104AZ  24041.34499170  .00005359  00000-0  35449-3 0  9993,2 49455  53.2188  23.4630 0001818  82.7679 277.3520 15.08848017124297,6917.856,95.437,540.979,538.463,0.0
49455.0,STARLINK-3145,PAYLOAD,2024-02-11 08:07:33,15.08858725,0.0001713,53.2177,18.9996,107.9668,252.1511,0.00057056,8.809e-05,0.0,0 STARLINK-3145,1 49455U 21104AZ  24042.33858559  .00008809  00000-0  57056-3 0  9994,2 49455  53.2177  18.9996 0001713 107.9668 252.1511 15.08858725124446,6917.823,95.436,540.873,538.503,0.0
49455.0,STARLINK-3145,PAYLOAD,2024-02-12 03:12:11,15.08848037,0.0001892,53.2177,15.4297,114.1228,245.9962,0.00017689,2.529e-05,0.0,0 STARLINK-3145,1 49455U 21104AZ  24043.13346510  .00002529  00000-0  17689-3 0  9993,2 49455  53.2177  15.4297 0001892 114.1228 245.9962 15.08848037125639,6917.856,95.437,541.03,538.412,0.0
49455.0,STARLINK-3145,PAYLOAD,2024-02-12 07:58:20,15.08853291,0.0001687,53.2186,14.5387,100.8399,259.2783,0.00027122,4.033e-05,0.0,0 STARLINK-3145,1 49455U 21104AZ  24043.33218387  .00004033  00000-0  27122-3 0  9990,2 49455  53.2186  14.5387 0001687 100.8399 259.2783 15.08853291124593,6917.84,95.437,540.872,538.538,0.0
49455.0,STARLINK-3145,PAYLOAD,2024-02-12 22:16:49,15.08837613,0.0001673,53.2187,11.8571,110.1611,249.9561,-5.283e-05,-1.129e-05,0.0,0 STARLINK-3145,1 49455U 21104AZ  24043.92834830 -.00001129  00000-0 -52830-4 0  9992,2 49455  53.2187  11.8571 0001673 110.1611 249.9561 15.08837613124685,6917.888,95.438,540.91,538.595,0.0
49455.0,STARLINK-3145,PAYLOAD,2024-02-13 04:38:21,15.08842297,0.0001189,53.217,10.6765,103.661,256.4515,0.00012577,1.714e-05,0.0,0 STARLINK-3145,1 49455U 21104AZ  24044.19330596  .00001714  00000-0  12577-3 0  9993,2 49455  53.2170  10.6765 0001189 103.6610 256.4515 15.08842297125796,6917.873,95.437,540.561,538.916,0.0
49455.0,STARLINK-3145,PAYLOAD,2024-02-13 14:10:40,15.0884414,0.0001258,53.2175,8.8929,93.1249,266.9887,0.00030423,4.558e-05,0.0,0 STARLINK-3145,1 49455U 21104AZ  24044.59074862  .00004558  00000-0  30423-3 0  9997,2 49455  53.2175   8.8929 0001258  93.1249 266.9887 15.08844140124785,6917.868,95.437,540.603,538.862,0.0
49455.0,STARLINK-3145,PAYLOAD,2024-02-13 22:07:36,15.08835766,0.0001622,53.2188,7.4129,119.708,240.4074,0.00015936,2.249e-05,0.0,0 STARLINK-3145,1 49455U 21104AZ  24044.92195378  .00002249  00000-0  15936-3 0  9997,2 49455  53.2188   7.4129 0001622 119.7080 240.4074 15.08835766124834,6917.893,95.438,540.88,538.636,0.0
49455.0,STARLINK-3145,PAYLOAD,2024-02-14 04:29:09,15.0884422,0.0001677,53.2201,6.224,119.4562,240.6598,0.00027465,4.086e-05,0.0,0 STARLINK-3145,1 49455U 21104AZ  24045.18691278  .00004086  00000-0  27465-3 0  9997,2 49455  53.2201   6.2240 0001677 119.4562 240.6598 15.08844220125944,6917.867,95.437,540.893,538.572,0.0
49455.0,STARLINK-3145,PAYLOAD,2024-02-14 14:01:28,15.08842966,0.0001262,53.2186,4.4339,89.2657,270.8479,0.00047945,7.351e-05,0.0,0 STARLINK-3145,1 49455U 21104AZ  24045.58435283  .00007351  00000-0  47945-3 0  9996,2 49455  53.2186   4.4339 0001262  89.2657 270.8479 15.08842966124930,6917.871,95.437,540.609,538.863,0.0
49455.0,STARLINK-3145,PAYLOAD,2024-02-15 02:44:33,15.08835365,0.0001526,53.2192,2.0581,94.4551,265.6616,4.7316e-05,4.65e-06,0.0,0 STARLINK-3145,1 49455U 21104AZ  24046.11427730  .00000465  00000-0  47316-4 0  9996,2 49455  53.2192   2.0581 0001526  94.4551 265.6616 15.08835365126082,6917.895,95.438,540.815,538.704,0.0
49455.0,STARLINK-3145,PAYLOAD,2024-02-15 05:55:19,15.08840486,0.0001564,53.2203,1.4618,94.51,265.6071,0.00013716,1.896e-05,0.0,0 STARLINK-3145,1 49455U 21104AZ  24046.24675564  .00001896  00000-0  13716-3 0  9995,2 49455  53.2203   1.4618 0001564  94.5100 265.6071 15.08840486125031,6917.879,95.438,540.826,538.662,0.0
49455.0,STARLINK-3145,PAYLOAD,2024-02-15 13:52:15,15.08833948,0.0001033,53.2182,359.9771,104.9085,255.2021,-1.2278e-06,-3.07e-06,0.0,0 STARLINK-3145,1 49455U 21104AZ  24046.57795696 -.00000307  00000-0 -12278-5 0  9992,2 49455  53.2182 359.9771 0001033 104.9085 255.2021 15.08833948125087,6917.899,95.438,540.479,539.049,0.0
49455.0,STARLINK-3145,PAYLOAD,2024-02-16 04:10:43,15.08839513,0.0001559,53.2184,357.2961,86.8446,273.2724,0.0001019,1.334e-05,0.0,0 STARLINK-3145,1 49455U 21104AZ  24047.17411993  .00001334  00000-0  10190-3 0  9992,2 49455  53.2184 357.2961 0001559  86.8446 273.2724 15.08839513126246,6917.882,95.438,540.825,538.668,0.0
49455.0,STARLINK-3145,PAYLOAD,2024-02-16 13:43:02,15.08840212,0.0001527,53.2184,355.5127,81.2873,278.8292,2.5286e-05,1.14e-06,0.0,0 STARLINK-3145,1 49455U 21104AZ  24047.57156041  .00000114  00000-0  25286-4 0  9994,2 49455  53.2184 355.5127 0001527  81.2873 278.8292 15.08840212125236,6917.88,95.438,540.801,538.688,0.0
49455.0,STARLINK-3145,PAYLOAD,2024-02-16 20:04:35,15.08835926,0.0001729,53.2187,354.3248,77.3611,282.7575,0.00013615,1.879e-05,0.0,0 STARLINK-3145,1 49455U 21104AZ  24047.83652476  .00001879  00000-0  13615-3 0  9997,2 49455  53.2187 354.3248 0001729  77.3611 282.7575 15.08835926125278,6917.893,95.438,540.954,538.562,0.0
49455.0,STARLINK-3145,PAYLOAD,2024-02-17 05:36:53,15.0885099,0.0001731,53.2188,352.5383,80.9888,279.13,0.00021975,3.212e-05,0.0,0 STARLINK-3145,1 49455U 21104AZ  24048.23395776  .00003212  00000-0  21975-3 0  9990,2 49455  53.2188 352.5383 0001731  80.9888 279.1300 15.08850990126408,6917.847,95.437,540.909,538.514,0.0
49455.0,STARLINK-3145,PAYLOAD,2024-02-17 13:33:49,15.08847771,0.0001586,53.2188,351.0519,88.0951,272.0223,0.00015591,2.195e-05,0.0,0 STARLINK-3145,1 49455U 21104AZ  24048.56515844  .00002195  00000-0  15591-3 0  9992,2 49455  53.2188 351.0519 0001586  88.0951 272.0223 15.08847771125386,6917.857,95.437,540.819,538.624,0.0
